[{"OBJECT_NAME":"STARLINK-31364","OBJECT_ID":"2024-068J","EPOCH":"2026-03-09T22:37:54.050016","MEAN_MOTION":15.27568214,"ECCENTRICITY":0.0001134,"INCLINATION":43.0044,"RA_OF_ASC_NODE":29.444,"ARG_OF_PERICENTER":289.8415,"MEAN_ANOMALY":70.2315,"EPHEMERIS_TYPE":0,"CLASSIFICATION_TYPE":"U","NORAD_CAT_ID":59463,"ELEMENT_SET_NO":999,"REV_AT_EPOCH":10860,"BSTAR":1.3944955e-5,"MEAN_MOTION_DOT":1.22e-6,"MEAN_MOTION_DDOT":0},{"OBJECT_NAME":"TRANSPORTER-1 OBJECT Z","OBJECT_ID":"2021-006Z","EPOCH":"2026-03-09T22:55:57.522432","MEAN_MOTION":15.30965056,"ECCENTRICITY":0.00100878,"INCLINATION":97.2377,"RA_OF_ASC_NODE":113.4736,"ARG_OF_PERICENTER":179.6869,"MEAN_ANOMALY":180.438,"EPHEMERIS_TYPE":0,"CLASSIFICATION_TYPE":"U","NORAD_CAT_ID":47436,"ELEMENT_SET_NO":999,"REV_AT_EPOCH":28420,"BSTAR":0.00024088983,"MEAN_MOTION_DOT":7.143e-5,"MEAN_MOTION_DDOT":0}]
